start=new Date('2022-04-08T00:00:00.000Z').valueOf();
sats=[{"EPHEMERIS_TYPE":"0","CLASSIFICATION_TYPE":"U","LAUNCH_DATE":"2021-05-15","NORAD_CAT_ID":"48574","EPOCH":"2022-04-07T22:00:00.999936","COUNTRY_CODE":"US","OBJECT_TYPE":"PAYLOAD","INCLINATION":"53.0547","BSTAR":"-0.00158470000000","PERIAPSIS":"546.017","PERIOD":"95.590","MEAN_MOTION_DOT":"-0.00023825","SITE":"AFETR","MEAN_ELEMENT_THEORY":"SGP4","GP_ID":"200701557","MEAN_MOTION":"15.06428262","CENTER_NAME":"EARTH","ARG_OF_PERICENTER":"62.3705","TLE_LINE1":"1 48574U 21041X   22097.91667824 -.00023825  00000-0 -15847-2 0  9998","APOAPSIS":"548.237","TLE_LINE2":"2 48574  53.0547  49.0917 0001603  62.3705 230.9405 15.06428262  3582","MEAN_ANOMALY":"230.9405","RCS_SIZE":"LARGE","OBJECT_ID":"2021-041X","ELEMENT_SET_NO":"999","REF_FRAME":"TEME","TIME_SYSTEM":"UTC","ECCENTRICITY":"0.00016030","FILE":"3392478","OBJECT_NAME":"STARLINK-2225","SEMIMAJOR_AXIS":"6925.262","DECAY_DATE":null,"RA_OF_ASC_NODE":"49.0917","MEAN_MOTION_DDOT":"0.0000000000000","REV_AT_EPOCH":"358"},{"MEAN_MOTION":"15.06406743","SITE":"AFETR","MEAN_MOTION_DOT":"-0.00007692","PERIOD":"95.592","GP_ID":"200701812","MEAN_ELEMENT_THEORY":"SGP4","OBJECT_ID":"2021-041Y","RCS_SIZE":"LARGE","MEAN_ANOMALY":"263.7804","CENTER_NAME":"EARTH","ARG_OF_PERICENTER":"64.5194","TLE_LINE2":"2 48575  53.0567  39.1045 0001484  64.5194 263.7804 15.06406743  3576","TLE_LINE1":"1 48575U 21041Y   22097.91667824 -.00007692  00000-0 -49798-3 0  9996","APOAPSIS":"548.221","NORAD_CAT_ID":"48575","OBJECT_TYPE":"PAYLOAD","COUNTRY_CODE":"US","EPOCH":"2022-04-07T22:00:00.999936","CLASSIFICATION_TYPE":"U","EPHEMERIS_TYPE":"0","LAUNCH_DATE":"2021-05-15","PERIAPSIS":"546.165","BSTAR":"-0.00049798000000","INCLINATION":"53.0567","SEMIMAJOR_AXIS":"6925.328","DECAY_DATE":null,"OBJECT_NAME":"STARLINK-2227","MEAN_MOTION_DDOT":"0.0000000000000","REV_AT_EPOCH":"357","RA_OF_ASC_NODE":"39.1045","REF_FRAME":"TEME","ELEMENT_SET_NO":"999","TIME_SYSTEM":"UTC","ECCENTRICITY":"0.00014840","FILE":"3392478"},{"MEAN_ANOMALY":"108.8529","RCS_SIZE":"LARGE","OBJECT_ID":"2021-041Z","ARG_OF_PERICENTER":"51.8348","CENTER_NAME":"EARTH","APOAPSIS":"548.358","TLE_LINE1":"1 48576U 21041Z   22097.91667824  .00001675  00000-0  13127-3 0  9997","TLE_LINE2":"2 48576  53.0591  54.0334 0001711  51.8348 108.8529 15.06413363  3584","MEAN_MOTION":"15.06413363","MEAN_MOTION_DOT":"0.00001675","PERIOD":"95.591","SITE":"AFETR","MEAN_ELEMENT_THEORY":"SGP4","GP_ID":"200700561","BSTAR":"0.00013127000000","PERIAPSIS":"545.988","INCLINATION":"53.0591","NORAD_CAT_ID":"48576","EPOCH":"2022-04-07T22:00:00.999936","OBJECT_TYPE":"PAYLOAD","COUNTRY_CODE":"US","EPHEMERIS_TYPE":"0","CLASSIFICATION_TYPE":"U","LAUNCH_DATE":"2021-05-15","MEAN_MOTION_DDOT":"0.0000000000000","REV_AT_EPOCH":"358","RA_OF_ASC_NODE":"54.0334","SEMIMAJOR_AXIS":"6925.308","DECAY_DATE":null,"OBJECT_NAME":"STARLINK-2228","TIME_SYSTEM":"UTC","ECCENTRICITY":"0.00017110","FILE":"3392478","ELEMENT_SET_NO":"999","REF_FRAME":"TEME"},{"ARG_OF_PERICENTER":"59.6256","CENTER_NAME":"EARTH","TLE_LINE2":"2 48577  53.0542  81.8717 0001671  59.6256 300.4898 15.06400999 49303","TLE_LINE1":"1 48577U 21041AA  22097.29686760 -.00000369  00000-0 -58526-5 0  9994","APOAPSIS":"548.368","OBJECT_ID":"2021-041AA","RCS_SIZE":"LARGE","MEAN_ANOMALY":"300.4898","SITE":"AFETR","PERIOD":"95.592","MEAN_MOTION_DOT":"-0.00000369","GP_ID":"200661697","MEAN_ELEMENT_THEORY":"SGP4","MEAN_MOTION":"15.06400999","INCLINATION":"53.0542","PERIAPSIS":"546.053","BSTAR":"-0.00000585260000","CLASSIFICATION_TYPE":"U","EPHEMERIS_TYPE":"0","LAUNCH_DATE":"2021-05-15","NORAD_CAT_ID":"48577","COUNTRY_CODE":"US","OBJECT_TYPE":"PAYLOAD","EPOCH":"2022-04-07T07:07:29.360640","RA_OF_ASC_NODE":"81.8717","MEAN_MOTION_DDOT":"0.0000000000000","REV_AT_EPOCH":"4930","OBJECT_NAME":"STARLINK-2231","SEMIMAJOR_AXIS":"6925.345","DECAY_DATE":null,"TIME_SYSTEM":"UTC","FILE":"3391885","ECCENTRICITY":"0.00016710","ELEMENT_SET_NO":"999","REF_FRAME":"TEME"},{"REF_FRAME":"TEME","ELEMENT_SET_NO":"999","TIME_SYSTEM":"UTC","ECCENTRICITY":"0.00015120","FILE":"3392404","SEMIMAJOR_AXIS":"6925.340","DECAY_DATE":null,"OBJECT_NAME":"STARLINK-2232","MEAN_MOTION_DDOT":"0.0000000000000","REV_AT_EPOCH":"4981","RA_OF_ASC_NODE":"80.1847","NORAD_CAT_ID":"48578","COUNTRY_CODE":"US","OBJECT_TYPE":"PAYLOAD","EPOCH":"2022-04-07T16:12:50.170752","CLASSIFICATION_TYPE":"U","EPHEMERIS_TYPE":"0","LAUNCH_DATE":"2021-05-15","PERIAPSIS":"546.158","BSTAR":"-0.00003781900000","INCLINATION":"53.0548","MEAN_MOTION":"15.06402665","SITE":"AFETR","PERIOD":"95.592","MEAN_MOTION_DOT":"-0.00000845","GP_ID":"200677956","MEAN_ELEMENT_THEORY":"SGP4","OBJECT_ID":"2021-041AB","RCS_SIZE":"LARGE","MEAN_ANOMALY":"294.9228","ARG_OF_PERICENTER":"65.1919","CENTER_NAME":"EARTH","TLE_LINE2":"2 48578  53.0548  80.1847 0001512  65.1919 294.9228 15.06402665 49810","TLE_LINE1":"1 48578U 21041AB  22097.67558068 -.00000845  00000-0 -37819-4 0  9996","APOAPSIS":"548.253"},{"BSTAR":"0.00015587000000","PERIAPSIS":"545.980","INCLINATION":"53.0537","NORAD_CAT_ID":"48579","EPOCH":"2022-04-07T16:24:49.038624","OBJECT_TYPE":"PAYLOAD","COUNTRY_CODE":"US","EPHEMERIS_TYPE":"0","CLASSIFICATION_TYPE":"U","LAUNCH_DATE":"2021-05-15","RCS_SIZE":"LARGE","MEAN_ANOMALY":"295.8799","OBJECT_ID":"2021-041AC","CENTER_NAME":"EARTH","ARG_OF_PERICENTER":"64.2367","TLE_LINE1":"1 48579U 21041AC  22097.68390091  .00002042  00000-0  15587-3 0  9994","APOAPSIS":"548.355","TLE_LINE2":"2 48579  53.0537  80.1487 0001715  64.2367 295.8799 15.06415074 49812","MEAN_MOTION":"15.06415074","PERIOD":"95.591","MEAN_MOTION_DOT":"0.00002042","SITE":"AFETR","MEAN_ELEMENT_THEORY":"SGP4","GP_ID":"200672196","TIME_SYSTEM":"UTC","ECCENTRICITY":"0.00017150","FILE":"3392144","ELEMENT_SET_NO":"999","REF_FRAME":"TEME","MEAN_MOTION_DDOT":"0.0000000000000","REV_AT_EPOCH":"4981","RA_OF_ASC_NODE":"80.1487","SEMIMAJOR_AXIS":"6925.302","DECAY_DATE":null,"OBJECT_NAME":"STARLINK-2233"},{"GP_ID":"200700061","MEAN_ELEMENT_THEORY":"SGP4","SITE":"AFETR","PERIOD":"95.592","MEAN_MOTION_DOT":"-0.00000676","MEAN_MOTION":"15.06395277","TLE_LINE2":"2 48580  53.0543  54.1125 0001380  82.7513 283.0652 15.06395277  3580","TLE_LINE1":"1 48580U 21041AD  22097.91667824 -.00000676  00000-0 -26486-4 0  9997","APOAPSIS":"548.184","CENTER_NAME":"EARTH","ARG_OF_PERICENTER":"82.7513","OBJECT_ID":"2021-041AD","MEAN_ANOMALY":"283.0652","RCS_SIZE":"LARGE","LAUNCH_DATE":"2021-05-15","CLASSIFICATION_TYPE":"U","EPHEMERIS_TYPE":"0","COUNTRY_CODE":"US","OBJECT_TYPE":"PAYLOAD","EPOCH":"2022-04-07T22:00:00.999936","NORAD_CAT_ID":"48580","INCLINATION":"53.0543","PERIAPSIS":"546.272","BSTAR":"-0.00002648600000","OBJECT_NAME":"STARLINK-2234","DECAY_DATE":null,"SEMIMAJOR_AXIS":"6925.363","RA_OF_ASC_NODE":"54.1125","REV_AT_EPOCH":"358","MEAN_MOTION_DDOT":"0.0000000000000","REF_FRAME":"TEME","ELEMENT_SET_NO":"999","ECCENTRICITY":"0.00013800","FILE":"3392478","TIME_SYSTEM":"UTC"},{"TIME_SYSTEM":"UTC","FILE":"3392478","ECCENTRICITY":"0.00014140","REF_FRAME":"TEME","ELEMENT_SET_NO":"999","MEAN_MOTION_DDOT":"0.0000000000000","REV_AT_EPOCH":"358","RA_OF_ASC_NODE":"44.1043","SEMIMAJOR_AXIS":"6925.310","DECAY_DATE":null,"OBJECT_NAME":"STARLINK-2235","BSTAR":"0.00060952000000","PERIAPSIS":"546.196","INCLINATION":"53.0565","NORAD_CAT_ID":"48581","EPOCH":"2022-04-07T22:00:00.999936","COUNTRY_CODE":"US","OBJECT_TYPE":"PAYLOAD","EPHEMERIS_TYPE":"0","CLASSIFICATION_TYPE":"U","LAUNCH_DATE":"2021-05-15","MEAN_ANOMALY":"149.0588","RCS_SIZE":"LARGE","OBJECT_ID":"2021-041AE","ARG_OF_PERICENTER":"71.7471","CENTER_NAME":"EARTH","TLE_LINE1":"1 48581U 21041AE  22097.91667824  .00008812  00000-0  60952-3 0  9991","APOAPSIS":"548.155","TLE_LINE2":"2 48581  53.0565  44.1043 0001414  71.7471 149.0588 15.06412441  3584","MEAN_MOTION":"15.06412441","MEAN_MOTION_DOT":"0.00008812","PERIOD":"95.591","SITE":"AFETR","MEAN_ELEMENT_THEORY":"SGP4","GP_ID":"200700311"},{"SEMIMAJOR_AXIS":"6925.326","DECAY_DATE":null,"OBJECT_NAME":"STARLINK-2236","MEAN_MOTION_DDOT":"0.0000000000000","REV_AT_EPOCH":"358","RA_OF_ASC_NODE":"44.0875","ELEMENT_SET_NO":"999","REF_FRAME":"TEME","TIME_SYSTEM":"UTC","ECCENTRICITY":"0.00013900","FILE":"3392478","MEAN_MOTION":"15.06407489","SITE":"AFETR","PERIOD":"95.592","MEAN_MOTION_DOT":"0.00001366","GP_ID":"200701558","MEAN_ELEMENT_THEORY":"SGP4","OBJECT_ID":"2021-041AF","MEAN_ANOMALY":"331.2736","RCS_SIZE":"LARGE","ARG_OF_PERICENTER":"69.5266","CENTER_NAME":"EARTH","TLE_LINE2":"2 48582  53.0544  44.0875 0001390  69.5266 331.2736 15.06407489  3580","TLE_LINE1":"1 48582U 21041AF  22097.91667824  .00001366  00000-0  11053-3 0  9997","APOAPSIS":"548.153","NORAD_CAT_ID":"48582","COUNTRY_CODE":"US","OBJECT_TYPE":"PAYLOAD","EPOCH":"2022-04-07T22:00:00.999936","CLASSIFICATION_TYPE":"U","EPHEMERIS_TYPE":"0","LAUNCH_DATE":"2021-05-15","PERIAPSIS":"546.228","BSTAR":"0.00011053000000","INCLINATION":"53.0544"},{"LAUNCH_DATE":"2021-05-15","CLASSIFICATION_TYPE":"U","EPHEMERIS_TYPE":"0","OBJECT_TYPE":"PAYLOAD","COUNTRY_CODE":"US","EPOCH":"2022-04-07T15:56:56.412384","NORAD_CAT_ID":"48583","INCLINATION":"53.0541","PERIAPSIS":"546.156","BSTAR":"0.00007356600000","GP_ID":"200639610","MEAN_ELEMENT_THEORY":"SGP4","SITE":"AFETR","PERIOD":"95.592","MEAN_MOTION_DOT":"0.00000814","MEAN_MOTION":"15.06401343","TLE_LINE2":"2 48583  53.0541  90.2352 0001521  58.5361 301.5777 15.06401343 49679","APOAPSIS":"548.263","TLE_LINE1":"1 48583U 21041AG  22097.66454181  .00000814  00000-0  73566-4 0  9995","ARG_OF_PERICENTER":"58.5361","CENTER_NAME":"EARTH","OBJECT_ID":"2021-041AG","MEAN_ANOMALY":"301.5777","RCS_SIZE":"LARGE","ELEMENT_SET_NO":"999","REF_FRAME":"TEME","ECCENTRICITY":"0.00015210","FILE":"3391879","TIME_SYSTEM":"UTC","OBJECT_NAME":"STARLINK-2237","DECAY_DATE":null,"SEMIMAJOR_AXIS":"6925.344","RA_OF_ASC_NODE":"90.2352","REV_AT_EPOCH":"4967","MEAN_MOTION_DDOT":"0.0000000000000"}];
